STARLINK-30323          
1 57634C 23122C   26199.41645833 -.00000246  00000+0 -89306-5 0  1992
2 57634  43.0011  63.0718 0001630 261.9308  16.8427 15.27561988    11
STARLINK-30329          
1 57635C 23122D   26199.39562500 -.00021400  00000+0 -77522-3 0  1999
2 57635  43.0007  74.6394 0001487 265.0878  82.3967 15.27584706    12
STARLINK-30330          
1 57636C 23122E   26199.39145833 -.00025455  00000+0 -92201-3 0  1991
2 57636  43.0003  74.7130 0001433 261.6083  41.7141 15.27590021    19
STARLINK-30311          
1 57637C 23122F   26199.38590278 -.00073730  00000+0 -26709-2 0  1996
2 57637  43.0014  74.0794 0001464 260.3267 295.4007 15.27609606    14
STARLINK-30328          
1 57638C 23122G   26199.41159722 -.00004917  00000+0 -17812-3 0  1993
2 57638  43.0028  62.9427 0001703 266.5232  27.9466 15.27572793    18
STARLINK-30326          
1 57639C 23122H   26199.39770833 -.00063252  00000+0 -22911-2 0  1995
2 57639  43.0037  74.3341 0001491 258.4300 220.8098 15.27607828    14
STARLINK-30324          
1 57640C 23122J   26199.39284722 -.00021450  00000+0 -77689-3 0  1991
2 57640  43.0015  74.6033 0001505 261.6191  91.7969 15.27590750    10
STARLINK-30312          
1 57641C 23122K   26199.42409722 -.00059420  00000+0 -21529-2 0  1994
2 57641  43.0008  73.7741 0001554 262.0029 179.3930 15.27597798    18
STARLINK-30263          
1 57642C 23122L   26199.39562500 -.00024030  00000+0 -87020-3 0  1993
2 57642  43.0012  74.0721 0001410 264.0999 323.9048 15.27596520    14
STARLINK-30280          
1 57643C 23122M   26199.42270833 -.00039605  00000+0 -14350-2 0  1992
2 57643  43.0015  74.0193 0001325 262.9179  71.7934 15.27587033    14
STARLINK-30247          
1 57644C 23122N   26199.42270833 -.00065588  00000+0 -23762-2 0  1999
2 57644  43.0011  73.9754 0001455 260.8694  95.0525 15.27603069    18
STARLINK-30277          
1 57645C 23122P   26199.37826389 -.00019964  00000+0 -72311-3 0  1999
2 57645  43.0021 292.3440 0001485 258.3655 122.6356 15.27586988    10
STARLINK-30265          
1 57646C 23122Q   26199.37340278 -.00023422  00000+0 -84800-3 0  1998
2 57646  43.0013  74.1133 0001257 265.0410 235.8990 15.27603166    17
STARLINK-30286          
1 57647C 23122R   26199.41437500 -.00017409  00000+0 -63059-3 0  1990
2 57647  43.0020  74.1158 0001376 264.5412   3.0358 15.27585268    16
STARLINK-30243          
1 57648C 23122S   26199.38520833 -.00069220  00000+0 -25074-2 0  1991
2 57648  43.0035  74.5119 0001561 263.0492 104.9181 15.27608907    13
STARLINK-30299          
1 57650C 23122U   26199.37687500 -.00023438  00000+0 -84892-3 0  1993
2 57650  43.0026  74.3756 0001438 262.0750 137.8220 15.27589583    17
STARLINK-30294          
1 57651C 23122V   26199.41368056 -.00046953  00000+0 -17011-2 0  1996
2 57651  43.0035  62.9317 0001611 259.2240  74.9764 15.27592581    15
STARLINK-30276          
1 57652C 23122W   26199.38243056 -.00081630  00000+0 -29568-2 0  1996
2 57652  43.0039  74.4766 0001591 262.2876 111.6041 15.27617108    12
STARLINK-30289          
1 57653C 23122X   26199.40604167 -.00041813  00000+0 -15149-2 0  1993
2 57653  43.0032  63.6319 0001492 259.4432  95.6113 15.27590302    13
STARLINK-30267          
1 57663C 23124A   26199.42340278 -.00006160  00000+0 -18192-3 0  1996
2 57663  53.1609 319.3716 0001207  93.7565   4.5242 15.34408979    16
STARLINK-30298          
1 57665C 23124C   26199.40465278  .00005248  00000+0  15495-3 0  1991
2 57665  53.1589 318.9961 0000851 112.4383 126.3946 15.34407671    15
STARLINK-30301          
1 57666C 23124D   26199.42756944  .00053186  00000+0  15513-2 0  1991
2 57666  53.1602  19.6092 0002238  99.3821 268.0781 15.34765899    13
STARLINK-30275          
1 57667C 23124E   26199.41368056 -.00005076  00000+0 -14992-3 0  1992
2 57667  53.1596 318.9809 0000982  93.2610  79.3255 15.34401239    14
STARLINK-30278          
1 57668C 23124F   26199.41437500 -.00001881  00000+0 -55546-4 0  1995
2 57668  53.1602 319.2788 0001182  88.9068 307.9474 15.34407217    19
STARLINK-30271          
1 57669C 23124G   26199.42409722 -.00009438  00000+0 -30347-3 0  1999
2 57669  53.1600 318.9036 0001141  91.3534  97.3729 15.31712082    10
STARLINK-30322          
1 57670C 23124H   26199.40881944 -.00002701  00000+0 -79787-4 0  1997
2 57670  53.1612 319.0794 0001326  89.7486  21.0883 15.34402995    17
STARLINK-30296          
1 57671C 23124J   26199.42131944 -.00006401  00000+0 -18910-3 0  1999
2 57671  53.1601 319.1290 0001069  89.1716 102.2711 15.34397378    12
STARLINK-30274          
1 57672C 23124K   26199.36993056  .00018925  00000+0  55863-3 0  1993
2 57672  53.1588 319.1784 0001171  98.2318 320.2795 15.34409122    13
STARLINK-30316          
1 57673C 23124L   26199.39076389  .00009067  00000+0  26777-3 0  1997
2 57673  53.1589 319.0716 0001040 103.2919  23.9453 15.34398789    12
STARLINK-30313          
1 57676C 23124P   26199.37618056  .00012468  00000+0  42013-3 0  1991
2 57676  53.1589 319.9581 0001206 102.3145 299.1199 15.30193156    10
STARLINK-30303          
1 57677C 23124Q   26199.40673611  .00003459  00000+0  10216-3 0  1994
2 57677  53.1593 319.0832 0001187 100.5516 103.2934 15.34403372    16
STARLINK-30320          
1 57678C 23124R   26199.42270833 -.00033965  00000+0 -10031-2 0  1997
2 57678  53.1579 305.0729 0001085 101.2391  78.1559 15.34419516    17
STARLINK-30321          
1 57679C 23124S   26199.37618056  .00016000  00000+0  47247-3 0  1994
2 57679  53.1595 319.1593 0001157 100.2585 329.5792 15.34399092    13
STARLINK-30283          
1 57680C 23124T   26199.39631944  .00009140  00000+0  26993-3 0  1991
2 57680  53.1595 319.6529 0000920  88.8470 138.3491 15.34400068    18
STARLINK-30273          
1 57681C 23124U   26199.42201389 -.00004189  00000+0 -13313-3 0  1994
2 57681  53.1580 318.9664 0000875  70.0701  85.5629 15.32079205    13
STARLINK-30297          
1 57682C 23124V   26199.40395833 -.00001860  00000+0 -62670-4 0  1995
2 57682  53.1592 319.8635 0001221  97.6571  79.4137 15.30204104    13
STARLINK-30295          
1 57683C 23124W   26199.39354167  .00004227  00000+0  12487-3 0  1997
2 57683  53.1597 319.2076 0001061  89.5263 343.2598 15.34391668    11
STARLINK-30288          
1 57698C 23129A   26199.42062500 -.00087450  00000+0 -31675-2 0  1999
2 57698  43.0018  99.9863 0001460 263.2055  27.6056 15.27621184    15
STARLINK-30347          
1 57699C 23129B   26199.38659722 -.00030788  00000+0 -11151-2 0  1992
2 57699  43.0011  88.5640 0001294 267.4483  62.1049 15.27595520    12
STARLINK-30332          
1 57700C 23129C   26199.36229167 -.00130310  00000+0 -47179-2 0  1990
2 57700  43.0029 107.4356 0001451 268.7221 284.8949 15.27656447    16
STARLINK-30345          
1 57701C 23129D   26199.39076389 -.00026427  00000+0 -95741-3 0  1992
2 57701  43.0014  99.6911 0001559 274.3374  50.1431 15.27584156    18
STARLINK-30333          
1 57702C 23129E   26199.38520833 -.00022241  00000+0 -80557-3 0  1999
2 57702  43.0031  99.4702 0001424 265.2778 134.7362 15.27588850    19
STARLINK-30336          
1 57703C 23129F   26199.36506944 -.00076133  00000+0 -27571-2 0  1990
2 57703  43.0002  99.9195 0001530 265.9683 241.6755 15.27621195    13
STARLINK-30346          
1 57704C 23129G   26199.37062500 -.00078349  00000+0 -28375-2 0  1991
2 57704  43.0031  99.6533 0001565 266.6953  10.5818 15.27620859    14
STARLINK-30327          
1 57707C 23129K   26199.40881944  .00000620  00000+0  13026-4 0  1993
2 57707  42.9947  58.9366 0030964 232.2076  62.1807 15.43943647    15
STARLINK-30315          
1 57708C 23129L   26199.36854167 -.00064289  00000+0 -23285-2 0  1995
2 57708  43.0008  99.8442 0001524 269.0585 278.9333 15.27610694    14
STARLINK-30287          
1 57709C 23129M   26199.38104167 -.00074188  00000+0 -26868-2 0  1995
2 57709  43.0024  99.6431 0001991 280.3722  33.0261 15.27617655    10
STARLINK-30335          
1 57710C 23129N   26199.37895833 -.00026040  00000+0 -94328-3 0  1994
2 57710  43.0020  99.7015 0001634 273.0156   7.6864 15.27587363    19
STARLINK-30318          
1 57711C 23129P   26199.38173611 -.00084627  00000+0 -30648-2 0  1998
2 57711  43.0031  99.5242 0001457 265.4189  94.2681 15.27624903    17
STARLINK-30348          
1 57712C 23129Q   26199.39979167 -.00031733  00000+0 -11493-2 0  1997
2 57712  42.9994  99.8178 0001363 271.4125  24.9352 15.27595632    19
STARLINK-30349          
1 57713C 23129R   26199.38798611 -.00024777  00000+0 -89660-3 0  1992
2 57713  43.0010  99.9831 0001440 274.3812 274.5634 15.27620205    10
STARLINK-30341          
1 57714C 23129S   26199.36784722 -.00071800  00000+0 -26000-2 0  1996
2 57714  43.0027 103.2213 0001576 265.9802 287.9861 15.27621374    15
STARLINK-30300          
1 57715C 23129T   26199.39770833 -.00029897  00000+0 -10835-2 0  1996
2 57715  43.0001  99.7783 0001483 268.8343  37.3226 15.27573495    10
STARLINK-30281          
1 57716C 23129U   26199.41923611 -.00032068  00000+0 -11616-2 0  1996
2 57716  43.0014  99.9443 0001152 260.8865  43.4866 15.27592591    10
STARLINK-30325          
1 57717C 23129V   26199.40534722 -.00070302  00000+0 -25463-2 0  1995
2 57717  42.9995  99.8339 0001491 265.3969  40.3322 15.27613002    15
STARLINK-30338          
1 57718C 23129W   26199.39076389 -.00085227  00000+0 -30866-2 0  1999
2 57718  43.0020 100.0528 0001673 264.5479 264.3015 15.27623143    15
STARLINK-30334          
1 57719C 23129X   26199.42409722 -.00027075  00000+0 -98059-3 0  1991
2 57719  43.0010  99.8112 0001035 266.8480 106.7254 15.27594088    17
STARLINK-30375          
1 57732C 23131A   26199.32340278  .00053308  00000+0  19304-2 0  1999
2 57732  43.0033 139.8606 0001321 270.4410 303.7724 15.27559490    11
STARLINK-30310          
1 57733C 23131B   26199.36159722  .00055337  00000+0  20040-2 0  1999
2 57733  43.0009 162.0401 0001609 271.1544  40.6924 15.27555678    14
